FLOCK 4S-43             
1 47687U 21006EN  23002.94989495  .00012646  00000+0  58030-3 0  9992
2 47687  97.4177  63.2173 0004807 317.7047  42.3817 15.20547274108482
FLOCK 4S-45             
1 47688U 21006EP  23002.89928972  .00020037  00000+0  91907-3 0  9993
2 47688  97.4190  63.1067 0007967 300.0291  60.0154 15.20443256108469
YAOGAN-31 G             
1 47691U 21014A   23002.71026516 -.00000030  00000+0  10000-3 0  9997
2 47691  63.4061 197.9671 0063821 353.6153   6.4043 13.45244662 91166
2021-014B               
1 47692U 21014B   23002.70431125 -.00000031  00000+0  10000-3 0  9994
2 47692  63.4082 202.5111 0058329 355.0882   4.9561 13.43846487 91051
YAOGAN-31 H             
1 47693U 21014C   23002.71026469 -.00000030  00000+0  10000-3 0  9996
2 47693  63.4072 198.9090 0064064 353.4540   6.5632 13.45244800 91130
YAOGAN-31 J             
1 47695U 21014E   23002.71006549 -.00000030  00000+0  10000-3 0  9995
2 47695  63.4054 197.9238 0063893 353.6840   6.3364 13.45245530 91152
FLOCK 4S-41             
1 47698U 21006ER  23002.66124255  .00010047  00000+0  46037-3 0  9995
2 47698  97.4225  63.5454 0007410 316.7084  43.3568 15.20645148107477
AMAZONIA 1              
1 47699U 21015A   23002.92231548 -.00000044  00000+0  00000+0 0  9992
2 47699  98.4439  82.4049 0001725  86.3248 273.8096 14.40827946 97025
SAI-1 NANOCONNECT-2     
1 47701U 21015C   23002.48905686  .00023657  00000+0  73679-3 0  9998
2 47701  97.4069  83.9519 0010913 105.1115 255.1336 15.33216986102641
SINE (SINDHUNETRA)      
1 47702U 21015D   23002.66916577  .00017283  00000+0  55480-3 0  9998
2 47702  97.4118  83.9492 0011160  98.7945 261.4561 15.32312255102623
SPACEBEE-87             
1 47703U 21015E   23002.82765873  .00843333  28873-3  29606-2 0  9993
2 47703  97.3816  90.3150 0008037 316.8541  43.2101 15.89176166103129
SPACEBEE-86             
1 47704U 21015F   23002.23011307  .02094967  32733-2  37728-2 0  9991
2 47704  97.3774  90.2754 0007588 317.7901  42.2793 16.02412479103056
SPACEBEE-85             
1 47705U 21015G   23002.78999342  .03141775  21375-1  33661-2 0  9998
2 47705  97.3748  91.0808 0008250 315.1240  44.9378 16.14029261103179
SPACEBEE-84             
1 47706U 21015H   23001.63249112  .09331765  24261-5  23735-2 0  9993
2 47706  97.3652  90.0110 0009313 305.0844  54.9576 16.28799769103003
ARKTIKA-M 1             
1 47719U 21016A   23001.33390448  .00000189  00000+0  00000+0 0  9994
2 47719  63.1487 211.3089 6918847 270.2695 347.0304  2.00603899 13469
SDSAT                   
1 47721U 21015V   23002.78986597  .00030597  00000+0  86825-3 0  9991
2 47721  97.4084  83.8376 0008832  70.0748 290.1446 15.36125606102629
STARLINK-2068           
1 47722U 21017A   23002.86649512 -.00000157  00000+0  83359-5 0  9997
2 47722  53.0568  12.4881 0001687  60.7462 299.3695 15.06398427102878
