[{"OBJECT_NAME":"FLOCK 4S-43","OBJECT_ID":"2021-006EN","EPOCH":"2023-01-02T22:47:50.923680","MEAN_MOTION":15.20547274,"ECCENTRICITY":0.0004807,"INCLINATION":97.4177,"RA_OF_ASC_NODE":63.2173,"ARG_OF_PERICENTER":317.7047,"MEAN_ANOMALY":42.3817,"EPHEMERIS_TYPE":0,"CLASSIFICATION_TYPE":"U","NORAD_CAT_ID":47687,"ELEMENT_SET_NO":999,"REV_AT_EPOCH":10848,"BSTAR":0.0005803,"MEAN_MOTION_DOT":0.00012646,"MEAN_MOTION_DDOT":0},{"OBJECT_NAME":"FLOCK 4S-45","OBJECT_ID":"2021-006EP","EPOCH":"2023-01-02T21:34:58.631808","MEAN_MOTION":15.20443256,"ECCENTRICITY":0.0007967,"INCLINATION":97.419,"RA_OF_ASC_NODE":63.1067,"ARG_OF_PERICENTER":300.0291,"MEAN_ANOMALY":60.0154,"EPHEMERIS_TYPE":0,"CLASSIFICATION_TYPE":"U","NORAD_CAT_ID":47688,"ELEMENT_SET_NO":999,"REV_AT_EPOCH":10846,"BSTAR":0.00091907,"MEAN_MOTION_DOT":0.00020037,"MEAN_MOTION_DDOT":0},{"OBJECT_NAME":"YAOGAN-31 G","OBJECT_ID":"2021-014A","EPOCH":"2023-01-02T17:02:46.909824","MEAN_MOTION":13.45244662,"ECCENTRICITY":0.0063821,"INCLINATION":63.4061,"RA_OF_ASC_NODE":197.9671,"ARG_OF_PERICENTER":353.6153,"MEAN_ANOMALY":6.4043,"EPHEMERIS_TYPE":0,"CLASSIFICATION_TYPE":"U","NORAD_CAT_ID":47691,"ELEMENT_SET_NO":999,"REV_AT_EPOCH":9116,"BSTAR":0.0001,"MEAN_MOTION_DOT":-3.0e-7,"MEAN_MOTION_DDOT":0},{"OBJECT_NAME":"2021-014B","OBJECT_ID":"2021-014B","EPOCH":"2023-01-02T16:54:12.492000","MEAN_MOTION":13.43846487,"ECCENTRICITY":0.0058329,"INCLINATION":63.4082,"RA_OF_ASC_NODE":202.5111,"ARG_OF_PERICENTER":355.0882,"MEAN_ANOMALY":4.9561,"EPHEMERIS_TYPE":0,"CLASSIFICATION_TYPE":"U","NORAD_CAT_ID":47692,"ELEMENT_SET_NO":999,"REV_AT_EPOCH":9105,"BSTAR":0.0001,"MEAN_MOTION_DOT":-3.1e-7,"MEAN_MOTION_DDOT":0},{"OBJECT_NAME":"YAOGAN-31 H","OBJECT_ID":"2021-014C","EPOCH":"2023-01-02T17:02:46.869216","MEAN_MOTION":13.452448,"ECCENTRICITY":0.0064064,"INCLINATION":63.4072,"RA_OF_ASC_NODE":198.909,"ARG_OF_PERICENTER":353.454,"MEAN_ANOMALY":6.5632,"EPHEMERIS_TYPE":0,"CLASSIFICATION_TYPE":"U","NORAD_CAT_ID":47693,"ELEMENT_SET_NO":999,"REV_AT_EPOCH":9113,"BSTAR":0.0001,"MEAN_MOTION_DOT":-3.0e-7,"MEAN_MOTION_DDOT":0},{"OBJECT_NAME":"YAOGAN-31 J","OBJECT_ID":"2021-014E","EPOCH":"2023-01-02T17:02:29.658336","MEAN_MOTION":13.4524553,"ECCENTRICITY":0.0063893,"INCLINATION":63.4054,"RA_OF_ASC_NODE":197.9238,"ARG_OF_PERICENTER":353.684,"MEAN_ANOMALY":6.3364,"EPHEMERIS_TYPE":0,"CLASSIFICATION_TYPE":"U","NORAD_CAT_ID":47695,"ELEMENT_SET_NO":999,"REV_AT_EPOCH":9115,"BSTAR":0.0001,"MEAN_MOTION_DOT":-3.0e-7,"MEAN_MOTION_DDOT":0},{"OBJECT_NAME":"FLOCK 4S-41","OBJECT_ID":"2021-006ER","EPOCH":"2023-01-02T15:52:11.356320","MEAN_MOTION":15.20645148,"ECCENTRICITY":0.000741,"INCLINATION":97.4225,"RA_OF_ASC_NODE":63.5454,"ARG_OF_PERICENTER":316.7084,"MEAN_ANOMALY":43.3568,"EPHEMERIS_TYPE":0,"CLASSIFICATION_TYPE":"U","NORAD_CAT_ID":47698,"ELEMENT_SET_NO":999,"REV_AT_EPOCH":10747,"BSTAR":0.00046037,"MEAN_MOTION_DOT":0.00010047,"MEAN_MOTION_DDOT":0},{"OBJECT_NAME":"AMAZONIA 1","OBJECT_ID":"2021-015A","EPOCH":"2023-01-02T22:08:08.057472","MEAN_MOTION":14.40827946,"ECCENTRICITY":0.0001725,"INCLINATION":98.4439,"RA_OF_ASC_NODE":82.4049,"ARG_OF_PERICENTER":86.3248,"MEAN_ANOMALY":273.8096,"EPHEMERIS_TYPE":0,"CLASSIFICATION_TYPE":"U","NORAD_CAT_ID":47699,"ELEMENT_SET_NO":999,"REV_AT_EPOCH":9702,"BSTAR":0,"MEAN_MOTION_DOT":-4.4e-7,"MEAN_MOTION_DDOT":0},{"OBJECT_NAME":"SAI-1 NANOCONNECT-2","OBJECT_ID":"2021-015C","EPOCH":"2023-01-02T11:44:14.512704","MEAN_MOTION":15.33216986,"ECCENTRICITY":0.0010913,"INCLINATION":97.4069,"RA_OF_ASC_NODE":83.9519,"ARG_OF_PERICENTER":105.1115,"MEAN_ANOMALY":255.1336,"EPHEMERIS_TYPE":0,"CLASSIFICATION_TYPE":"U","NORAD_CAT_ID":47701,"ELEMENT_SET_NO":999,"REV_AT_EPOCH":10264,"BSTAR":0.00073679,"MEAN_MOTION_DOT":0.00023657,"MEAN_MOTION_DDOT":0},{"OBJECT_NAME":"SINE (SINDHUNETRA)","OBJECT_ID":"2021-015D","EPOCH":"2023-01-02T16:03:35.922528","MEAN_MOTION":15.32312255,"ECCENTRICITY":0.001116,"INCLINATION":97.4118,"RA_OF_ASC_NODE":83.9492,"ARG_OF_PERICENTER":98.7945,"MEAN_ANOMALY":261.4561,"EPHEMERIS_TYPE":0,"CLASSIFICATION_TYPE":"U","NORAD_CAT_ID":47702,"ELEMENT_SET_NO":999,"REV_AT_EPOCH":10262,"BSTAR":0.0005548,"MEAN_MOTION_DOT":0.00017283,"MEAN_MOTION_DDOT":0},{"OBJECT_NAME":"SPACEBEE-87","OBJECT_ID":"2021-015E","EPOCH":"2023-01-02T19:51:49.714272","MEAN_MOTION":15.89176166,"ECCENTRICITY":0.0008037,"INCLINATION":97.3816,"RA_OF_ASC_NODE":90.315,"ARG_OF_PERICENTER":316.8541,"MEAN_ANOMALY":43.2101,"EPHEMERIS_TYPE":0,"CLASSIFICATION_TYPE":"U","NORAD_CAT_ID":47703,"ELEMENT_SET_NO":999,"REV_AT_EPOCH":10312,"BSTAR":0.0029606,"MEAN_MOTION_DOT":0.00843333,"MEAN_MOTION_DDOT":0.00028873},{"OBJECT_NAME":"SPACEBEE-86","OBJECT_ID":"2021-015F","EPOCH":"2023-01-02T05:31:21.769248","MEAN_MOTION":16.02412479,"ECCENTRICITY":0.0007588,"INCLINATION":97.3774,"RA_OF_ASC_NODE":90.2754,"ARG_OF_PERICENTER":317.7901,"MEAN_ANOMALY":42.2793,"EPHEMERIS_TYPE":0,"CLASSIFICATION_TYPE":"U","NORAD_CAT_ID":47704,"ELEMENT_SET_NO":999,"REV_AT_EPOCH":10305,"BSTAR":0.0037728,"MEAN_MOTION_DOT":0.02094967,"MEAN_MOTION_DDOT":0.0032733},{"OBJECT_NAME":"SPACEBEE-85","OBJECT_ID":"2021-015G","EPOCH":"2023-01-02T18:57:35.431488","MEAN_MOTION":16.14029261,"ECCENTRICITY":0.000825,"INCLINATION":97.3748,"RA_OF_ASC_NODE":91.0808,"ARG_OF_PERICENTER":315.124,"MEAN_ANOMALY":44.9378,"EPHEMERIS_TYPE":0,"CLASSIFICATION_TYPE":"U","NORAD_CAT_ID":47705,"ELEMENT_SET_NO":999,"REV_AT_EPOCH":10317,"BSTAR":0.0033661,"MEAN_MOTION_DOT":0.03141775,"MEAN_MOTION_DDOT":0.021375},{"OBJECT_NAME":"SPACEBEE-84","OBJECT_ID":"2021-015H","EPOCH":"2023-01-01T15:10:47.232768","MEAN_MOTION":16.28799769,"ECCENTRICITY":0.0009313,"INCLINATION":97.3652,"RA_OF_ASC_NODE":90.011,"ARG_OF_PERICENTER":305.0844,"MEAN_ANOMALY":54.9576,"EPHEMERIS_TYPE":0,"CLASSIFICATION_TYPE":"U","NORAD_CAT_ID":47706,"ELEMENT_SET_NO":999,"REV_AT_EPOCH":10300,"BSTAR":0.0023735,"MEAN_MOTION_DOT":0.09331765,"MEAN_MOTION_DDOT":2.4261e-6},{"OBJECT_NAME":"ARKTIKA-M 1","OBJECT_ID":"2021-016A","EPOCH":"2023-01-01T08:00:49.347072","MEAN_MOTION":2.00603899,"ECCENTRICITY":0.6918847,"INCLINATION":63.1487,"RA_OF_ASC_NODE":211.3089,"ARG_OF_PERICENTER":270.2695,"MEAN_ANOMALY":347.0304,"EPHEMERIS_TYPE":0,"CLASSIFICATION_TYPE":"U","NORAD_CAT_ID":47719,"ELEMENT_SET_NO":999,"REV_AT_EPOCH":1346,"BSTAR":0,"MEAN_MOTION_DOT":1.89e-6,"MEAN_MOTION_DDOT":0},{"OBJECT_NAME":"SDSAT","OBJECT_ID":"2021-015V","EPOCH":"2023-01-02T18:57:24.419808","MEAN_MOTION":15.36125606,"ECCENTRICITY":0.0008832,"INCLINATION":97.4084,"RA_OF_ASC_NODE":83.8376,"ARG_OF_PERICENTER":70.0748,"MEAN_ANOMALY":290.1446,"EPHEMERIS_TYPE":0,"CLASSIFICATION_TYPE":"U","NORAD_CAT_ID":47721,"ELEMENT_SET_NO":999,"REV_AT_EPOCH":10262,"BSTAR":0.00086825,"MEAN_MOTION_DOT":0.00030597,"MEAN_MOTION_DDOT":0},{"OBJECT_NAME":"STARLINK-2068","OBJECT_ID":"2021-017A","EPOCH":"2023-01-02T20:47:45.178368","MEAN_MOTION":15.06398427,"ECCENTRICITY":0.0001687,"INCLINATION":53.0568,"RA_OF_ASC_NODE":12.4881,"ARG_OF_PERICENTER":60.7462,"MEAN_ANOMALY":299.3695,"EPHEMERIS_TYPE":0,"CLASSIFICATION_TYPE":"U","NORAD_CAT_ID":47722,"ELEMENT_SET_NO":999,"REV_AT_EPOCH":10287,"BSTAR":8.3359e-6,"MEAN_MOTION_DOT":-1.57e-6,"MEAN_MOTION_DDOT":0}]
